[{"OBJECT_NAME":"STARLINK-2608","OBJECT_ID":"2021-038N","EPOCH":"2026-03-03T21:14:09.891744","MEAN_MOTION":15.30194079,"ECCENTRICITY":0.00011851,"INCLINATION":53.1606,"RA_OF_ASC_NODE":14.8451,"ARG_OF_PERICENTER":104.8657,"MEAN_ANOMALY":255.2476,"EPHEMERIS_TYPE":0,"CLASSIFICATION_TYPE":"U","NORAD_CAT_ID":48365,"ELEMENT_SET_NO":999,"REV_AT_EPOCH":26634,"BSTAR":1.8395097e-5,"MEAN_MOTION_DOT":1.86e-6,"MEAN_MOTION_DDOT":0},{"OBJECT_NAME":"STARLINK-2643","OBJECT_ID":"2021-038Q","EPOCH":"2026-03-03T20:33:54.108864","MEAN_MOTION":15.30196647,"ECCENTRICITY":0.00014446,"INCLINATION":53.1632,"RA_OF_ASC_NODE":12.4701,"ARG_OF_PERICENTER":94.3912,"MEAN_ANOMALY":265.7253,"EPHEMERIS_TYPE":0,"CLASSIFICATION_TYPE":"U","NORAD_CAT_ID":48367,"ELEMENT_SET_NO":999,"REV_AT_EPOCH":26636,"BSTAR":0.000277443,"MEAN_MOTION_DOT":7.866e-5,"MEAN_MOTION_DDOT":0},{"OBJECT_NAME":"STARLINK-2623","OBJECT_ID":"2021-038R","EPOCH":"2026-03-03T03:12:31.300704","MEAN_MOTION":15.30219091,"ECCENTRICITY":0.00013976,"INCLINATION":53.1622,"RA_OF_ASC_NODE":18.2371,"ARG_OF_PERICENTER":78.43,"MEAN_ANOMALY":281.6857,"EPHEMERIS_TYPE":0,"CLASSIFICATION_TYPE":"U","NORAD_CAT_ID":48368,"ELEMENT_SET_NO":999,"REV_AT_EPOCH":26622,"BSTAR":0.00048391649,"MEAN_MOTION_DOT":0.00014008,"MEAN_MOTION_DDOT":0},{"OBJECT_NAME":"STARLINK-2621","OBJECT_ID":"2021-038T","EPOCH":"2026-03-03T02:39:08.846784","MEAN_MOTION":15.30216938,"ECCENTRICITY":0.00011134,"INCLINATION":53.1597,"RA_OF_ASC_NODE":18.3417,"ARG_OF_PERICENTER":85.0184,"MEAN_ANOMALY":275.0944,"EPHEMERIS_TYPE":0,"CLASSIFICATION_TYPE":"U","NORAD_CAT_ID":48370,"ELEMENT_SET_NO":999,"REV_AT_EPOCH":26621,"BSTAR":9.6591322e-5,"MEAN_MOTION_DOT":2.504e-5,"MEAN_MOTION_DDOT":0},{"OBJECT_NAME":"STARLINK-2589","OBJECT_ID":"2021-038U","EPOCH":"2026-03-03T02:34:36.082848","MEAN_MOTION":15.30201384,"ECCENTRICITY":0.0001477,"INCLINATION":53.1605,"RA_OF_ASC_NODE":18.359,"ARG_OF_PERICENTER":100.4101,"MEAN_ANOMALY":259.7067,"EPHEMERIS_TYPE":0,"CLASSIFICATION_TYPE":"U","NORAD_CAT_ID":48371,"ELEMENT_SET_NO":999,"REV_AT_EPOCH":26621,"BSTAR":4.3013013e-5,"MEAN_MOTION_DOT":9.15e-6,"MEAN_MOTION_DDOT":0},{"OBJECT_NAME":"STARLINK-2609","OBJECT_ID":"2021-038W","EPOCH":"2026-03-03T03:10:12.958752","MEAN_MOTION":15.30200243,"ECCENTRICITY":0.00011412,"INCLINATION":53.1629,"RA_OF_ASC_NODE":15.9536,"ARG_OF_PERICENTER":92.6383,"MEAN_ANOMALY":267.4748,"EPHEMERIS_TYPE":0,"CLASSIFICATION_TYPE":"U","NORAD_CAT_ID":48373,"ELEMENT_SET_NO":999,"REV_AT_EPOCH":26625,"BSTAR":0.00033020269,"MEAN_MOTION_DOT":9.433e-5,"MEAN_MOTION_DDOT":0},{"OBJECT_NAME":"STARLINK-2604","OBJECT_ID":"2021-038X","EPOCH":"2026-03-03T02:17:55.207104","MEAN_MOTION":15.30199478,"ECCENTRICITY":0.00014458,"INCLINATION":53.16,"RA_OF_ASC_NODE":18.4313,"ARG_OF_PERICENTER":101.5031,"MEAN_ANOMALY":258.6132,"EPHEMERIS_TYPE":0,"CLASSIFICATION_TYPE":"U","NORAD_CAT_ID":48374,"ELEMENT_SET_NO":999,"REV_AT_EPOCH":26621,"BSTAR":2.6747227e-5,"MEAN_MOTION_DOT":4.33e-6,"MEAN_MOTION_DDOT":0},{"OBJECT_NAME":"STARLINK-2603","OBJECT_ID":"2021-038Y","EPOCH":"2026-03-03T03:47:03.626304","MEAN_MOTION":15.29389327,"ECCENTRICITY":0.00012169,"INCLINATION":53.1576,"RA_OF_ASC_NODE":18.1233,"ARG_OF_PERICENTER":110.082,"MEAN_ANOMALY":250.0311,"EPHEMERIS_TYPE":0,"CLASSIFICATION_TYPE":"U","NORAD_CAT_ID":48375,"ELEMENT_SET_NO":999,"REV_AT_EPOCH":26622,"BSTAR":0.00036332124,"MEAN_MOTION_DOT":0.00010153,"MEAN_MOTION_DDOT":0},{"OBJECT_NAME":"STARLINK-2610","OBJECT_ID":"2021-038Z","EPOCH":"2026-03-03T03:43:59.132928","MEAN_MOTION":15.29365206,"ECCENTRICITY":0.00012788,"INCLINATION":53.1573,"RA_OF_ASC_NODE":18.1464,"ARG_OF_PERICENTER":105.6729,"MEAN_ANOMALY":254.4413,"EPHEMERIS_TYPE":0,"CLASSIFICATION_TYPE":"U","NORAD_CAT_ID":48376,"ELEMENT_SET_NO":999,"REV_AT_EPOCH":26622,"BSTAR":0.00020647551,"MEAN_MOTION_DOT":5.608e-5,"MEAN_MOTION_DDOT":0},{"OBJECT_NAME":"STARLINK-2499","OBJECT_ID":"2021-038AA","EPOCH":"2026-03-03T03:35:16.679904","MEAN_MOTION":15.30213053,"ECCENTRICITY":0.00013568,"INCLINATION":53.1619,"RA_OF_ASC_NODE":18.1794,"ARG_OF_PERICENTER":91.8378,"MEAN_ANOMALY":268.2778,"EPHEMERIS_TYPE":0,"CLASSIFICATION_TYPE":"U","NORAD_CAT_ID":48377,"ELEMENT_SET_NO":999,"REV_AT_EPOCH":26622,"BSTAR":0.00025497565,"MEAN_MOTION_DOT":7.203e-5,"MEAN_MOTION_DDOT":0},{"OBJECT_NAME":"STARLINK-2526","OBJECT_ID":"2021-038AB","EPOCH":"2026-03-03T03:39:50.452992","MEAN_MOTION":15.30225705,"ECCENTRICITY":0.00011694,"INCLINATION":53.1599,"RA_OF_ASC_NODE":18.2048,"ARG_OF_PERICENTER":78.5705,"MEAN_ANOMALY":281.5427,"EPHEMERIS_TYPE":0,"CLASSIFICATION_TYPE":"U","NORAD_CAT_ID":48378,"ELEMENT_SET_NO":999,"REV_AT_EPOCH":26622,"BSTAR":0.00055694923,"MEAN_MOTION_DOT":0.00016185,"MEAN_MOTION_DDOT":0},{"OBJECT_NAME":"STARLINK-2612","OBJECT_ID":"2021-038AC","EPOCH":"2026-03-03T03:14:49.074144","MEAN_MOTION":15.30241505,"ECCENTRICITY":0.00011968,"INCLINATION":53.1619,"RA_OF_ASC_NODE":16.1884,"ARG_OF_PERICENTER":84.8278,"MEAN_ANOMALY":275.2859,"EPHEMERIS_TYPE":0,"CLASSIFICATION_TYPE":"U","NORAD_CAT_ID":48379,"ELEMENT_SET_NO":999,"REV_AT_EPOCH":26625,"BSTAR":0.00060601961,"MEAN_MOTION_DOT":0.00017655,"MEAN_MOTION_DDOT":0},{"OBJECT_NAME":"STARLINK-2614","OBJECT_ID":"2021-038AD","EPOCH":"2026-03-03T20:38:27.913056","MEAN_MOTION":15.30198106,"ECCENTRICITY":0.00012493,"INCLINATION":53.1632,"RA_OF_ASC_NODE":12.6686,"ARG_OF_PERICENTER":78.8879,"MEAN_ANOMALY":281.2262,"EPHEMERIS_TYPE":0,"CLASSIFICATION_TYPE":"U","NORAD_CAT_ID":48380,"ELEMENT_SET_NO":999,"REV_AT_EPOCH":26636,"BSTAR":9.7241062e-5,"MEAN_MOTION_DOT":2.522e-5,"MEAN_MOTION_DDOT":0},{"OBJECT_NAME":"STARLINK-2630","OBJECT_ID":"2021-038AE","EPOCH":"2026-03-03T03:21:39.856032","MEAN_MOTION":15.30138834,"ECCENTRICITY":0.00012137,"INCLINATION":53.1595,"RA_OF_ASC_NODE":18.208,"ARG_OF_PERICENTER":68.8316,"MEAN_ANOMALY":291.2815,"EPHEMERIS_TYPE":0,"CLASSIFICATION_TYPE":"U","NORAD_CAT_ID":48381,"ELEMENT_SET_NO":999,"REV_AT_EPOCH":26622,"BSTAR":0.0012576228,"MEAN_MOTION_DOT":0.00037003,"MEAN_MOTION_DDOT":0},{"OBJECT_NAME":"STARLINK-2585","OBJECT_ID":"2021-038AF","EPOCH":"2026-03-03T06:25:07.374144","MEAN_MOTION":15.29887819,"ECCENTRICITY":0.0001627,"INCLINATION":53.1595,"RA_OF_ASC_NODE":17.6218,"ARG_OF_PERICENTER":93.7398,"MEAN_ANOMALY":266.3789,"EPHEMERIS_TYPE":0,"CLASSIFICATION_TYPE":"U","NORAD_CAT_ID":48382,"ELEMENT_SET_NO":999,"REV_AT_EPOCH":26624,"BSTAR":0.0032869438,"MEAN_MOTION_DOT":0.00097328,"MEAN_MOTION_DDOT":0},{"OBJECT_NAME":"STARLINK-2598","OBJECT_ID":"2021-038AJ","EPOCH":"2026-03-03T01:54:19.661472","MEAN_MOTION":15.30192573,"ECCENTRICITY":0.00013446,"INCLINATION":53.1611,"RA_OF_ASC_NODE":16.0696,"ARG_OF_PERICENTER":91.8875,"MEAN_ANOMALY":268.228,"EPHEMERIS_TYPE":0,"CLASSIFICATION_TYPE":"U","NORAD_CAT_ID":48385,"ELEMENT_SET_NO":999,"REV_AT_EPOCH":26747,"BSTAR":-4.7624424e-5,"MEAN_MOTION_DOT":-1.769e-5,"MEAN_MOTION_DDOT":0},{"OBJECT_NAME":"STARLINK-2606","OBJECT_ID":"2021-038AK","EPOCH":"2026-03-04T00:00:00.999648","MEAN_MOTION":15.20891552,"ECCENTRICITY":0.00013008,"INCLINATION":53.1183,"RA_OF_ASC_NODE":11.7222,"ARG_OF_PERICENTER":100.7208,"MEAN_ANOMALY":171.5277,"EPHEMERIS_TYPE":0,"CLASSIFICATION_TYPE":"U","NORAD_CAT_ID":48386,"ELEMENT_SET_NO":999,"REV_AT_EPOCH":549,"BSTAR":0.062874921,"MEAN_MOTION_DOT":0.01547259,"MEAN_MOTION_DDOT":0},{"OBJECT_NAME":"STARLINK-2594","OBJECT_ID":"2021-038AM","EPOCH":"2026-03-04T00:00:00.999648","MEAN_MOTION":15.23717824,"ECCENTRICITY":0.00016935,"INCLINATION":53.1302,"RA_OF_ASC_NODE":11.5527,"ARG_OF_PERICENTER":92.6136,"MEAN_ANOMALY":127.9913,"EPHEMERIS_TYPE":0,"CLASSIFICATION_TYPE":"U","NORAD_CAT_ID":48388,"ELEMENT_SET_NO":999,"REV_AT_EPOCH":570,"BSTAR":0.058539328,"MEAN_MOTION_DOT":0.01566697,"MEAN_MOTION_DDOT":0},{"OBJECT_NAME":"STARLINK-2586","OBJECT_ID":"2021-038AP","EPOCH":"2026-03-03T01:36:52.289568","MEAN_MOTION":15.3020566,"ECCENTRICITY":0.00012458,"INCLINATION":53.1612,"RA_OF_ASC_NODE":3.4122,"ARG_OF_PERICENTER":87.0719,"MEAN_ANOMALY":273.0425,"EPHEMERIS_TYPE":0,"CLASSIFICATION_TYPE":"U","NORAD_CAT_ID":48390,"ELEMENT_SET_NO":999,"REV_AT_EPOCH":26764,"BSTAR":-1.8105695e-5,"MEAN_MOTION_DOT":-8.95e-6,"MEAN_MOTION_DDOT":0},{"OBJECT_NAME":"STARLINK-2607","OBJECT_ID":"2021-038AQ","EPOCH":"2026-03-03T04:55:37.246944","MEAN_MOTION":15.29371361,"ECCENTRICITY":0.00012306,"INCLINATION":53.1604,"RA_OF_ASC_NODE":2.9078,"ARG_OF_PERICENTER":91.2631,"MEAN_ANOMALY":268.8511,"EPHEMERIS_TYPE":0,"CLASSIFICATION_TYPE":"U","NORAD_CAT_ID":48391,"ELEMENT_SET_NO":999,"REV_AT_EPOCH":26766,"BSTAR":0.00019575807,"MEAN_MOTION_DOT":5.3e-5,"MEAN_MOTION_DDOT":0},{"OBJECT_NAME":"STARLINK-2605","OBJECT_ID":"2021-038AR","EPOCH":"2026-03-03T19:56:39.823872","MEAN_MOTION":15.30186678,"ECCENTRICITY":0.00019488,"INCLINATION":53.1615,"RA_OF_ASC_NODE":359.7487,"ARG_OF_PERICENTER":98.093,"MEAN_ANOMALY":262.0292,"EPHEMERIS_TYPE":0,"CLASSIFICATION_TYPE":"U","NORAD_CAT_ID":48392,"ELEMENT_SET_NO":999,"REV_AT_EPOCH":26776,"BSTAR":0.00045508634,"MEAN_MOTION_DOT":0.00013137,"MEAN_MOTION_DDOT":0},{"OBJECT_NAME":"STARLINK-2574","OBJECT_ID":"2021-038AU","EPOCH":"2026-03-03T03:08:40.689600","MEAN_MOTION":15.30201616,"ECCENTRICITY":9.663e-5,"INCLINATION":53.1596,"RA_OF_ASC_NODE":5.3998,"ARG_OF_PERICENTER":89.3445,"MEAN_ANOMALY":270.7667,"EPHEMERIS_TYPE":0,"CLASSIFICATION_TYPE":"U","NORAD_CAT_ID":48395,"ELEMENT_SET_NO":999,"REV_AT_EPOCH":26762,"BSTAR":8.7475896e-5,"MEAN_MOTION_DOT":2.233e-5,"MEAN_MOTION_DDOT":0},{"OBJECT_NAME":"STARLINK-2575","OBJECT_ID":"2021-038AV","EPOCH":"2026-03-03T19:43:00.491808","MEAN_MOTION":15.3018944,"ECCENTRICITY":7.551e-5,"INCLINATION":53.163,"RA_OF_ASC_NODE":359.8029,"ARG_OF_PERICENTER":75.4117,"MEAN_ANOMALY":284.6967,"EPHEMERIS_TYPE":0,"CLASSIFICATION_TYPE":"U","NORAD_CAT_ID":48396,"ELEMENT_SET_NO":999,"REV_AT_EPOCH":26776,"BSTAR":1.862289e-5,"MEAN_MOTION_DOT":1.93e-6,"MEAN_MOTION_DDOT":0}]
